STARLINK-3975           
1 52620U 22052Y   26068.87062468  .00001500  00000+0  11228-3 0  9991
2 52620  53.2156 283.3126 0001215  89.4731 270.6400 15.08853082210805
LEMUR-2-STELLA          
1 60533U 24149BT  26068.72657350  .00013685  00000+0  85776-3 0  9992
2 60533  97.6764 150.9122 0001299  95.1117 265.0260 15.09464064 85488
